2025-292C               
1 66995U 25292C   25351.86127562  .00004483  00000+0  32308-3 0  9995
2 66995  97.6533  64.3638 0013860 254.1591 105.8107 15.04596066  1167
2025-292D               
1 66996U 25292D   25351.86102989  .00002739  00000+0  19907-3 0  9994
2 66996  97.6527  64.3636 0013035 256.8674 103.1097 15.04630605  1161
2025-292E               
1 66997U 25292E   25351.86062153  .00003357  00000+0  24240-3 0  9996
2 66997  97.6548  64.3660 0013395 257.7575 102.2151 15.04714812  1154
2025-292F               
1 66998U 25292F   25351.85982895  .00004364  00000+0  31228-3 0  9993
2 66998  97.6568  64.3686 0014512 258.6672 101.2923 15.04879010  1164
2025-292G               
1 66999U 25292G   25351.79301741  .00004285  00000+0  30624-3 0  9993
2 66999  97.6578  64.3039 0014018 261.0488  98.9152 15.04942087  1152
2025-292H               
1 67000U 25292H   25351.66003836  .00004658  00000+0  33245-3 0  9993
2 67000  97.6577  64.1722 0014031 261.5567  98.4069 15.04941506  1001
2025-292J               
1 67001U 25292J   25351.86249411  .00004605  00000+0  33386-3 0  9995
2 67001  97.6568  64.3651 0014239 249.4684 110.5014 15.04357836  1160
ZK-1A R/B               
1 67002U 25292K   25351.74148946  .00149979  80718-5  72409-3 0  9997
2 67002  97.7232  64.9261 0214339 347.5825  12.0192 15.56194858  1177
HULIANWANG DIGUI 16A    
1 67059U 25295A   25351.46978994 -.00000182  00000+0 -90034-5 0  9995
2 67059  50.0070 352.2731 0013896 264.5159  95.4170 14.25569756   795
HULIANWANG DIGUI 16B    
1 67060U 25295B   25349.71694909  .00000000  00000+0  66896-4 0  9998
2 67060  50.0050 359.6709 0013223 257.2650 102.6786 14.25706335   543
HULIANWANG DIGUI 16C    
1 67061U 25295C   25349.71692468 -.00000001  00000+0  66638-4 0  9993
2 67061  50.0012 359.6606 0013268 256.3366 103.6071 14.25729079   549
HULIANWANG DIGUI 16D    
1 67062U 25295D   25351.95971960  .00000228  00000+0  16229-3 0  9990
2 67062  50.0054 350.1972 0013159 271.6478  88.2929 14.25754267   863
