CCSDS_OMM_VERS = 2.0
CREATION_DATE  = 
ORIGINATOR     = 

OBJECT_NAME    = 2025-292C
OBJECT_ID      = 2025-292C
CENTER_NAME    = EARTH
REF_FRAME      = TEME
TIME_SYSTEM    = UTC
MEAN_ELEMENT_THEORY = SGP/SGP4

EPOCH          = 2025-12-17T20:40:14.213568
MEAN_MOTION    = 15.04596066
ECCENTRICITY   = .00138609
INCLINATION    = 97.6533
RA_OF_ASC_NODE = 64.3638
ARG_OF_PERICENTER = 254.1591
MEAN_ANOMALY   = 105.8107

EPHEMERIS_TYPE = 0
CLASSIFICATION_TYPE = U
NORAD_CAT_ID   = 66995
ELEMENT_SET_NO = 999
REV_AT_EPOCH   = 116
BSTAR          = .32308476E-3
MEAN_MOTION_DOT = .4483E-4
MEAN_MOTION_DDOT = 0

CCSDS_OMM_VERS = 2.0
CREATION_DATE  = 
ORIGINATOR     = 

OBJECT_NAME    = 2025-292D
OBJECT_ID      = 2025-292D
CENTER_NAME    = EARTH
REF_FRAME      = TEME
TIME_SYSTEM    = UTC
MEAN_ELEMENT_THEORY = SGP/SGP4

EPOCH          = 2025-12-17T20:39:52.982496
MEAN_MOTION    = 15.04630605
ECCENTRICITY   = .00130352
INCLINATION    = 97.6527
RA_OF_ASC_NODE = 64.3636
ARG_OF_PERICENTER = 256.8674
MEAN_ANOMALY   = 103.1097

EPHEMERIS_TYPE = 0
CLASSIFICATION_TYPE = U
NORAD_CAT_ID   = 66996
ELEMENT_SET_NO = 999
REV_AT_EPOCH   = 116
BSTAR          = .19907174E-3
MEAN_MOTION_DOT = .2739E-4
MEAN_MOTION_DDOT = 0

CCSDS_OMM_VERS = 2.0
CREATION_DATE  = 
ORIGINATOR     = 

OBJECT_NAME    = 2025-292E
OBJECT_ID      = 2025-292E
CENTER_NAME    = EARTH
REF_FRAME      = TEME
TIME_SYSTEM    = UTC
MEAN_ELEMENT_THEORY = SGP/SGP4

EPOCH          = 2025-12-17T20:39:17.700192
MEAN_MOTION    = 15.04714812
ECCENTRICITY   = .0013395
INCLINATION    = 97.6548
RA_OF_ASC_NODE = 64.3660
ARG_OF_PERICENTER = 257.7575
MEAN_ANOMALY   = 102.2151

EPHEMERIS_TYPE = 0
CLASSIFICATION_TYPE = U
NORAD_CAT_ID   = 66997
ELEMENT_SET_NO = 999
REV_AT_EPOCH   = 115
BSTAR          = .24240153E-3
MEAN_MOTION_DOT = .3357E-4
MEAN_MOTION_DDOT = 0

CCSDS_OMM_VERS = 2.0
CREATION_DATE  = 
ORIGINATOR     = 

OBJECT_NAME    = 2025-292F
OBJECT_ID      = 2025-292F
CENTER_NAME    = EARTH
REF_FRAME      = TEME
TIME_SYSTEM    = UTC
MEAN_ELEMENT_THEORY = SGP/SGP4

EPOCH          = 2025-12-17T20:38:09.221280
MEAN_MOTION    = 15.04879010
ECCENTRICITY   = .00145121
INCLINATION    = 97.6568
RA_OF_ASC_NODE = 64.3686
ARG_OF_PERICENTER = 258.6672
MEAN_ANOMALY   = 101.2923

EPHEMERIS_TYPE = 0
CLASSIFICATION_TYPE = U
NORAD_CAT_ID   = 66998
ELEMENT_SET_NO = 999
REV_AT_EPOCH   = 116
BSTAR          = .31228085E-3
MEAN_MOTION_DOT = .4364E-4
MEAN_MOTION_DDOT = 0

CCSDS_OMM_VERS = 2.0
CREATION_DATE  = 
ORIGINATOR     = 

OBJECT_NAME    = 2025-292G
OBJECT_ID      = 2025-292G
CENTER_NAME    = EARTH
REF_FRAME      = TEME
TIME_SYSTEM    = UTC
MEAN_ELEMENT_THEORY = SGP/SGP4

EPOCH          = 2025-12-17T19:01:56.704224
MEAN_MOTION    = 15.04942087
ECCENTRICITY   = .00140189
INCLINATION    = 97.6578
RA_OF_ASC_NODE = 64.3039
ARG_OF_PERICENTER = 261.0488
MEAN_ANOMALY   = 98.9152

EPHEMERIS_TYPE = 0
CLASSIFICATION_TYPE = U
NORAD_CAT_ID   = 66999
ELEMENT_SET_NO = 999
REV_AT_EPOCH   = 115
BSTAR          = .30623898E-3
MEAN_MOTION_DOT = .4285E-4
MEAN_MOTION_DDOT = 0

CCSDS_OMM_VERS = 2.0
CREATION_DATE  = 
ORIGINATOR     = 

OBJECT_NAME    = 2025-292H
OBJECT_ID      = 2025-292H
CENTER_NAME    = EARTH
REF_FRAME      = TEME
TIME_SYSTEM    = UTC
MEAN_ELEMENT_THEORY = SGP/SGP4

EPOCH          = 2025-12-17T15:50:27.314304
MEAN_MOTION    = 15.04941506
ECCENTRICITY   = .00140318
INCLINATION    = 97.6577
RA_OF_ASC_NODE = 64.1722
ARG_OF_PERICENTER = 261.5567
MEAN_ANOMALY   = 98.4069

EPHEMERIS_TYPE = 0
CLASSIFICATION_TYPE = U
NORAD_CAT_ID   = 67000
ELEMENT_SET_NO = 999
REV_AT_EPOCH   = 100
BSTAR          = .33244641E-3
MEAN_MOTION_DOT = .4658E-4
MEAN_MOTION_DDOT = 0

CCSDS_OMM_VERS = 2.0
CREATION_DATE  = 
ORIGINATOR     = 

OBJECT_NAME    = 2025-292J
OBJECT_ID      = 2025-292J
CENTER_NAME    = EARTH
REF_FRAME      = TEME
TIME_SYSTEM    = UTC
MEAN_ELEMENT_THEORY = SGP/SGP4

EPOCH          = 2025-12-17T20:41:59.491104
MEAN_MOTION    = 15.04357836
ECCENTRICITY   = .00142392
INCLINATION    = 97.6568
RA_OF_ASC_NODE = 64.3651
ARG_OF_PERICENTER = 249.4684
MEAN_ANOMALY   = 110.5014

EPHEMERIS_TYPE = 0
CLASSIFICATION_TYPE = U
NORAD_CAT_ID   = 67001
ELEMENT_SET_NO = 999
REV_AT_EPOCH   = 116
BSTAR          = .33385504E-3
MEAN_MOTION_DOT = .4605E-4
MEAN_MOTION_DDOT = 0

CCSDS_OMM_VERS = 2.0
CREATION_DATE  = 
ORIGINATOR     = 

OBJECT_NAME    = ZK-1A R/B
OBJECT_ID      = 2025-292K
CENTER_NAME    = EARTH
REF_FRAME      = TEME
TIME_SYSTEM    = UTC
MEAN_ELEMENT_THEORY = SGP/SGP4

EPOCH          = 2025-12-17T17:47:44.689344
MEAN_MOTION    = 15.56194858
ECCENTRICITY   = .02143396
INCLINATION    = 97.7232
RA_OF_ASC_NODE = 64.9261
ARG_OF_PERICENTER = 347.5825
MEAN_ANOMALY   = 12.0192

EPHEMERIS_TYPE = 0
CLASSIFICATION_TYPE = U
NORAD_CAT_ID   = 67002
ELEMENT_SET_NO = 999
REV_AT_EPOCH   = 117
BSTAR          = .72408711E-3
MEAN_MOTION_DOT = .149979E-2
MEAN_MOTION_DDOT = .8071778E-5

CCSDS_OMM_VERS = 2.0
CREATION_DATE  = 
ORIGINATOR     = 

OBJECT_NAME    = HULIANWANG DIGUI 16A
OBJECT_ID      = 2025-295A
CENTER_NAME    = EARTH
REF_FRAME      = TEME
TIME_SYSTEM    = UTC
MEAN_ELEMENT_THEORY = SGP/SGP4

EPOCH          = 2025-12-17T11:16:29.850816
MEAN_MOTION    = 14.25569756
ECCENTRICITY   = .00138963
INCLINATION    = 50.0070
RA_OF_ASC_NODE = 352.2731
ARG_OF_PERICENTER = 264.5159
MEAN_ANOMALY   = 95.4170

EPHEMERIS_TYPE = 0
CLASSIFICATION_TYPE = U
NORAD_CAT_ID   = 67059
ELEMENT_SET_NO = 999
REV_AT_EPOCH   = 79
BSTAR          = -.9003402E-5
MEAN_MOTION_DOT = -.182E-5
MEAN_MOTION_DDOT = 0

CCSDS_OMM_VERS = 2.0
CREATION_DATE  = 
ORIGINATOR     = 

OBJECT_NAME    = HULIANWANG DIGUI 16B
OBJECT_ID      = 2025-295B
CENTER_NAME    = EARTH
REF_FRAME      = TEME
TIME_SYSTEM    = UTC
MEAN_ELEMENT_THEORY = SGP/SGP4

EPOCH          = 2025-12-15T17:12:24.401376
MEAN_MOTION    = 14.25706335
ECCENTRICITY   = .00132237
INCLINATION    = 50.0050
RA_OF_ASC_NODE = 359.6709
ARG_OF_PERICENTER = 257.2650
MEAN_ANOMALY   = 102.6786

EPHEMERIS_TYPE = 0
CLASSIFICATION_TYPE = U
NORAD_CAT_ID   = 67060
ELEMENT_SET_NO = 999
REV_AT_EPOCH   = 54
BSTAR          = .66896441E-4
MEAN_MOTION_DOT = 0
MEAN_MOTION_DDOT = 0

CCSDS_OMM_VERS = 2.0
CREATION_DATE  = 
ORIGINATOR     = 

OBJECT_NAME    = HULIANWANG DIGUI 16C
OBJECT_ID      = 2025-295C
CENTER_NAME    = EARTH
REF_FRAME      = TEME
TIME_SYSTEM    = UTC
MEAN_ELEMENT_THEORY = SGP/SGP4

EPOCH          = 2025-12-15T17:12:22.292352
MEAN_MOTION    = 14.25729079
ECCENTRICITY   = .00132682
INCLINATION    = 50.0012
RA_OF_ASC_NODE = 359.6606
ARG_OF_PERICENTER = 256.3366
MEAN_ANOMALY   = 103.6071

EPHEMERIS_TYPE = 0
CLASSIFICATION_TYPE = U
NORAD_CAT_ID   = 67061
ELEMENT_SET_NO = 999
REV_AT_EPOCH   = 54
BSTAR          = .66638352E-4
MEAN_MOTION_DOT = -.1E-7
MEAN_MOTION_DDOT = 0

CCSDS_OMM_VERS = 2.0
CREATION_DATE  = 
ORIGINATOR     = 

OBJECT_NAME    = HULIANWANG DIGUI 16D
OBJECT_ID      = 2025-295D
CENTER_NAME    = EARTH
REF_FRAME      = TEME
TIME_SYSTEM    = UTC
MEAN_ELEMENT_THEORY = SGP/SGP4

EPOCH          = 2025-12-17T23:01:59.773440
MEAN_MOTION    = 14.25754267
ECCENTRICITY   = .00131594
INCLINATION    = 50.0054
RA_OF_ASC_NODE = 350.1972
ARG_OF_PERICENTER = 271.6478
MEAN_ANOMALY   = 88.2929

EPHEMERIS_TYPE = 0
CLASSIFICATION_TYPE = U
NORAD_CAT_ID   = 67062
ELEMENT_SET_NO = 999
REV_AT_EPOCH   = 86
BSTAR          = .16228708E-3
MEAN_MOTION_DOT = .228E-5
MEAN_MOTION_DDOT = 0

